{
  "type": "FeatureCollection",
  "features": [
    {
      "type": "Feature",
      "properties": {
        "norad_id": 44334,
        "name": "EUTELSAT 7C",
        "group": "eutelsat",
        "lat": 0.04965158730388732,
        "lon": -97.15807889488799,
        "alt_km": 35773.17945870113,
        "timestamp": "2025-12-14T11:29:49.728188+00:00",
        "meta_object_name": "EUTELSAT 7C",
        "meta_object_id": "2019-034B",
        "meta_epoch": "2025-12-13T15:11:40.735104",
        "meta_mean_motion": 1.00271666,
        "meta_eccentricity": 0.00031677,
        "meta_inclination": 0.0725,
        "meta_ra_of_asc_node": 178.8041,
        "meta_arg_of_pericenter": 67.5886,
        "meta_mean_anomaly": 71.077,
        "meta_ephemeris_type": 0,
        "meta_classification_type": "U",
        "meta_norad_cat_id": 44334,
        "meta_element_set_no": 999,
        "meta_rev_at_epoch": 497,
        "meta_bstar": 0,
        "meta_mean_motion_dot": 6.4e-07,
        "meta_mean_motion_ddot": 0,
        "tle_line1": "1 44334U 19034B   25347.63311036  .00000064  00000+0  00000+0 0  9997",
        "tle_line2": "2 44334   0.0725 178.8041 0003167  67.5886  71.0770  1.00271666  4971"
      },
      "geometry": {
        "type": "Point",
        "coordinates": [
          -97.15807889488799,
          0.04965158730388732
        ]
      }
    },
    {
      "type": "Feature",
      "properties": {
        "norad_id": 44624,
        "name": "EUTELSAT 5 WEST B",
        "group": "eutelsat",
        "lat": -0.08108729916660563,
        "lon": -109.16281560092833,
        "alt_km": 35772.3256490191,
        "timestamp": "2025-12-14T11:29:49.728200+00:00",
        "meta_object_name": "EUTELSAT 5 WEST B",
        "meta_object_id": "2019-067A",
        "meta_epoch": "2025-12-13T15:08:18.558240",
        "meta_mean_motion": 1.00272105,
        "meta_eccentricity": 0.00033004,
        "meta_inclination": 0.0617,
        "meta_ra_of_asc_node": 351.0606,
        "meta_arg_of_pericenter": 272.0253,
        "meta_mean_anomaly": 41.5517,
        "meta_ephemeris_type": 0,
        "meta_classification_type": "U",
        "meta_norad_cat_id": 44624,
        "meta_element_set_no": 999,
        "meta_rev_at_epoch": 2257,
        "meta_bstar": 0,
        "meta_mean_motion_dot": -2.7e-07,
        "meta_mean_motion_ddot": 0,
        "tle_line1": "1 44624U 19067A   25347.63077035 -.00000027  00000+0  00000+0 0  9993",
        "tle_line2": "2 44624   0.0617 351.0606 0003300 272.0253  41.5517  1.00272105 22571"
      },
      "geometry": {
        "type": "Point",
        "coordinates": [
          -109.16281560092833,
          -0.08108729916660563
        ]
      }
    },
    {
      "type": "Feature",
      "properties": {
        "norad_id": 45027,
        "name": "EUTELSAT KONNECT",
        "group": "eutelsat",
        "lat": -0.006925884411772792,
        "lon": -96.9748303749076,
        "alt_km": 35781.061960092615,
        "timestamp": "2025-12-14T11:29:49.728211+00:00",
        "meta_object_name": "EUTELSAT KONNECT",
        "meta_object_id": "2020-005B",
        "meta_epoch": "2025-12-13T15:11:48.223392",
        "meta_mean_motion": 1.00268961,
        "meta_eccentricity": 0.00014801,
        "meta_inclination": 0.0706,
        "meta_ra_of_asc_node": 96.3476,
        "meta_arg_of_pericenter": 190.0371,
        "meta_mean_anomaly": 31.3246,
        "meta_ephemeris_type": 0,
        "meta_classification_type": "U",
        "meta_norad_cat_id": 45027,
        "meta_element_set_no": 999,
        "meta_rev_at_epoch": 2247,
        "meta_bstar": 0,
        "meta_mean_motion_dot": 6.4e-07,
        "meta_mean_motion_ddot": 0,
        "tle_line1": "1 45027U 20005B   25347.63319703  .00000064  00000+0  00000+0 0  9996",
        "tle_line2": "2 45027   0.0706  96.3476 0001480 190.0371  31.3246  1.00268961 22479"
      },
      "geometry": {
        "type": "Point",
        "coordinates": [
          -96.9748303749076,
          -0.006925884411772792
        ]
      }
    },
    {
      "type": "Feature",
      "properties": {
        "norad_id": 49056,
        "name": "EUTELSAT QUANTUM",
        "group": "eutelsat",
        "lat": -0.031728491781343446,
        "lon": -56.42621120699731,
        "alt_km": 35772.23076264376,
        "timestamp": "2025-12-14T11:29:49.728223+00:00",
        "meta_object_name": "EUTELSAT QUANTUM",
        "meta_object_id": "2021-069B",
        "meta_epoch": "2025-12-13T15:23:17.123424",
        "meta_mean_motion": 1.00273236,
        "meta_eccentricity": 0.00035885,
        "meta_inclination": 0.0246,
        "meta_ra_of_asc_node": 43.9854,
        "meta_arg_of_pericenter": 231.2877,
        "meta_mean_anomaly": 85.8237,
        "meta_ephemeris_type": 0,
        "meta_classification_type": "U",
        "meta_norad_cat_id": 49056,
        "meta_element_set_no": 999,
        "meta_rev_at_epoch": 1606,
        "meta_bstar": 0,
        "meta_mean_motion_dot": 1.41e-06,
        "meta_mean_motion_ddot": 0,
        "tle_line1": "1 49056U 21069B   25347.64117041  .00000141  00000+0  00000+0 0  9991",
        "tle_line2": "2 49056   0.0246  43.9854 0003588 231.2877  85.8237  1.00273236 16065"
      },
      "geometry": {
        "type": "Point",
        "coordinates": [
          -56.42621120699731,
          -0.031728491781343446
        ]
      }
    },
    {
      "type": "Feature",
      "properties": {
        "norad_id": 53765,
        "name": "EUTELSAT KONNECT VHTS",
        "group": "eutelsat",
        "lat": 0.0011678695073292637,
        "lon": -101.43022267261671,
        "alt_km": 35776.3942427294,
        "timestamp": "2025-12-14T11:29:49.728235+00:00",
        "meta_object_name": "EUTELSAT KONNECT VHTS",
        "meta_object_id": "2022-110A",
        "meta_epoch": "2025-12-12T23:45:57.918816",
        "meta_mean_motion": 1.00271501,
        "meta_eccentricity": 0.00023835,
        "meta_inclination": 0.0657,
        "meta_ra_of_asc_node": 101.0037,
        "meta_arg_of_pericenter": 141.1037,
        "meta_mean_anomaly": 199.031,
        "meta_ephemeris_type": 0,
        "meta_classification_type": "U",
        "meta_norad_cat_id": 53765,
        "meta_element_set_no": 999,
        "meta_rev_at_epoch": 495,
        "meta_bstar": 0,
        "meta_mean_motion_dot": 3e-07,
        "meta_mean_motion_ddot": 0,
        "tle_line1": "1 53765U 22110A   25346.99025369  .00000030  00000+0  00000+0 0  9996",
        "tle_line2": "2 53765   0.0657 101.0037 0002383 141.1037 199.0310  1.00271501  4959"
      },
      "geometry": {
        "type": "Point",
        "coordinates": [
          -101.43022267261671,
          0.0011678695073292637
        ]
      }
    },
    {
      "type": "Feature",
      "properties": {
        "norad_id": 54048,
        "name": "EUTELSAT HOTBIRD 13F",
        "group": "eutelsat",
        "lat": -0.035186997056050356,
        "lon": -91.18929015641078,
        "alt_km": 35786.573332632855,
        "timestamp": "2025-12-14T11:29:49.728246+00:00",
        "meta_object_name": "EUTELSAT HOTBIRD 13F",
        "meta_object_id": "2022-134A",
        "meta_epoch": "2025-12-13T15:13:25.567680",
        "meta_mean_motion": 1.00270384,
        "meta_eccentricity": 0.00022972,
        "meta_inclination": 0.0478,
        "meta_ra_of_asc_node": 293.4985,
        "meta_arg_of_pericenter": 66.2228,
        "meta_mean_anomaly": 324.1956,
        "meta_ephemeris_type": 0,
        "meta_classification_type": "U",
        "meta_norad_cat_id": 54048,
        "meta_element_set_no": 999,
        "meta_rev_at_epoch": 1151,
        "meta_bstar": 0,
        "meta_mean_motion_dot": 1.02e-06,
        "meta_mean_motion_ddot": 0,
        "tle_line1": "1 54048U 22134A   25347.63432370  .00000102  00000+0  00000+0 0  9993",
        "tle_line2": "2 54048   0.0478 293.4985 0002297  66.2228 324.1956  1.00270384 11511"
      },
      "geometry": {
        "type": "Point",
        "coordinates": [
          -91.18929015641078,
          -0.035186997056050356
        ]
      }
    },
    {
      "type": "Feature",
      "properties": {
        "norad_id": 54225,
        "name": "EUTELSAT HOTBIRD 13G",
        "group": "eutelsat",
        "lat": 0.004706159889121608,
        "lon": -91.14212812344103,
        "alt_km": 35785.493754358184,
        "timestamp": "2025-12-14T11:29:49.728258+00:00",
        "meta_object_name": "EUTELSAT HOTBIRD 13G",
        "meta_object_id": "2022-146A",
        "meta_epoch": "2025-12-13T08:22:27.424992",
        "meta_mean_motion": 1.00272446,
        "meta_eccentricity": 0.00017362,
        "meta_inclination": 0.0478,
        "meta_ra_of_asc_node": 234.0643,
        "meta_arg_of_pericenter": 306.9385,
        "meta_mean_anomaly": 39.8842,
        "meta_ephemeris_type": 0,
        "meta_classification_type": "U",
        "meta_norad_cat_id": 54225,
        "meta_element_set_no": 999,
        "meta_rev_at_epoch": 560,
        "meta_bstar": 0,
        "meta_mean_motion_dot": 1.01e-06,
        "meta_mean_motion_ddot": 0,
        "tle_line1": "1 54225U 22146A   25347.34892853  .00000101  00000+0  00000+0 0  9996",
        "tle_line2": "2 54225   0.0478 234.0643 0001736 306.9385  39.8842  1.00272446  5603"
      },
      "geometry": {
        "type": "Point",
        "coordinates": [
          -91.14212812344103,
          0.004706159889121608
        ]
      }
    }
  ]
}